STARLINK-3125
1 49451U 21104AV  23198.43580179  .00000821  00000+0  69663-4 0  9995
2 49451  53.2162 236.8045 0001141  92.1465 267.9657 15.08843600 93982
STARLINK-3150
1 49452U 21104AW  23198.35852289  .00001138  00000+0  89568-4 0  9999
2 49452  53.2171 237.1798 0001180  98.5995 261.5131 15.08844015 93970
STARLINK-3129
1 49453U 21104AX  23197.64188947 -.00000035  00000+0  15898-4 0  9995
2 49453  53.2152 240.4553 0001031  92.4678 267.6432 15.08835330 93850
STARLINK-3160
1 49454U 21104AY  23198.36588132  .00002077  00000+0  14855-3 0  9994
2 49454  53.2147 237.1187 0001078  88.6305 271.4810 15.08843698 93978
STARLINK-3145
1 49455U 21104AZ  23198.41739788  .00000891  00000+0  74046-4 0  9997
2 49455  53.2166 236.8873 0000998  96.9163 263.1943 15.08844525 93977
STARLINK-3124
1 49456U 21104BA  23198.36316226  .00003889  00000+0  26227-3 0  9997
2 49456  53.2151 237.1799 0001074  87.6875 272.4240 15.08846349 93964
STARLINK-3132
1 49457U 21104BB  23197.42108027  .00000531  00000+0  51455-4 0  9995
2 49457  53.2170 241.3697 0001023  97.4675 262.6433 15.08838227 93827
STARLINK-3156
1 49458U 21104BC  23198.35483718  .00001301  00000+0  99813-4 0  9998
2 49458  53.2162 237.1689 0000843  81.7424 278.3664 15.08845018 93972
STARLINK-3141
1 49459U 21104BD  23198.41004745 -.00000420  00000+0 -82856-5 0  9998
2 49459  53.2168 236.9198 0001082  99.8375 260.2739 15.08834689 93977
STARLINK-3140
1 49460U 21104BE  23198.47259740  .00001248  00000+0  96470-4 0  9996
2 49460  53.2166 236.6392 0000825  70.9514 289.1567 15.08843820 93997
STARLINK-3219
1 49724U 21115A   23197.92431957  .00000671  00000+0  60251-4 0  9999
2 49724  53.2162 169.1007 0001067  86.5035 273.6079 15.08838690 90698
STARLINK-3218
1 49725U 21115B   23198.36497377  .00000455  00000+0  46640-4 0  9993
2 49725  53.2164 167.2255 0001157  92.5149 267.5976 15.08840477 90760
STARLINK-3237
1 49726U 21115C   23198.38243792  .00000731  00000+0  64022-4 0  9997
2 49726  53.2165 177.0430 0001147  87.2546 272.8577 15.08842250 90629
STARLINK-3242
1 49727U 21115D   23198.38613647  .00000029  00000+0  19929-4 0  9994
2 49727  53.2158 177.0238 0000854  87.7968 272.3122 15.08833573 90635
