[{
    "OBJECT_NAME": "STARLINK-3125",
    "OBJECT_ID": "2021-104AV",
    "EPOCH": "2023-07-17T10:27:33.274656",
    "MEAN_MOTION": 15.088436,
    "ECCENTRICITY": 0.0001141,
    "INCLINATION": 53.2162,
    "RA_OF_ASC_NODE": 236.8045,
    "ARG_OF_PERICENTER": 92.1465,
    "MEAN_ANOMALY": 267.9657,
    "EPHEMERIS_TYPE": 0,
    "CLASSIFICATION_TYPE": "U",
    "NORAD_CAT_ID": 49451,
    "ELEMENT_SET_NO": 999,
    "REV_AT_EPOCH": 9398,
    "BSTAR": 6.9663e-5,
    "MEAN_MOTION_DOT": 8.21e-6,
    "MEAN_MOTION_DDOT": 0
},{
    "OBJECT_NAME": "STARLINK-3150",
    "OBJECT_ID": "2021-104AW",
    "EPOCH": "2023-07-17T08:36:16.377696",
    "MEAN_MOTION": 15.08844015,
    "ECCENTRICITY": 0.000118,
    "INCLINATION": 53.2171,
    "RA_OF_ASC_NODE": 237.1798,
    "ARG_OF_PERICENTER": 98.5995,
    "MEAN_ANOMALY": 261.5131,
    "EPHEMERIS_TYPE": 0,
    "CLASSIFICATION_TYPE": "U",
    "NORAD_CAT_ID": 49452,
    "ELEMENT_SET_NO": 999,
    "REV_AT_EPOCH": 9397,
    "BSTAR": 8.9568e-5,
    "MEAN_MOTION_DOT": 1.138e-5,
    "MEAN_MOTION_DDOT": 0
},{
    "OBJECT_NAME": "STARLINK-3129",
    "OBJECT_ID": "2021-104AX",
    "EPOCH": "2023-07-16T15:24:19.250208",
    "MEAN_MOTION": 15.0883533,
    "ECCENTRICITY": 0.0001031,
    "INCLINATION": 53.2152,
    "RA_OF_ASC_NODE": 240.4553,
    "ARG_OF_PERICENTER": 92.4678,
    "MEAN_ANOMALY": 267.6432,
    "EPHEMERIS_TYPE": 0,
    "CLASSIFICATION_TYPE": "U",
    "NORAD_CAT_ID": 49453,
    "ELEMENT_SET_NO": 999,
    "REV_AT_EPOCH": 9385,
    "BSTAR": 1.5898e-5,
    "MEAN_MOTION_DOT": -3.5e-7,
    "MEAN_MOTION_DDOT": 0
},{
    "OBJECT_NAME": "STARLINK-3160",
    "OBJECT_ID": "2021-104AY",
    "EPOCH": "2023-07-17T08:46:52.146048",
    "MEAN_MOTION": 15.08843698,
    "ECCENTRICITY": 0.0001078,
    "INCLINATION": 53.2147,
    "RA_OF_ASC_NODE": 237.1187,
    "ARG_OF_PERICENTER": 88.6305,
    "MEAN_ANOMALY": 271.481,
    "EPHEMERIS_TYPE": 0,
    "CLASSIFICATION_TYPE": "U",
    "NORAD_CAT_ID": 49454,
    "ELEMENT_SET_NO": 999,
    "REV_AT_EPOCH": 9397,
    "BSTAR": 0.00014855,
    "MEAN_MOTION_DOT": 2.077e-5,
    "MEAN_MOTION_DDOT": 0
},{
    "OBJECT_NAME": "STARLINK-3145",
    "OBJECT_ID": "2021-104AZ",
    "EPOCH": "2023-07-17T10:01:03.176832",
    "MEAN_MOTION": 15.08844525,
    "ECCENTRICITY": 9.98e-5,
    "INCLINATION": 53.2166,
    "RA_OF_ASC_NODE": 236.8873,
    "ARG_OF_PERICENTER": 96.9163,
    "MEAN_ANOMALY": 263.1943,
    "EPHEMERIS_TYPE": 0,
    "CLASSIFICATION_TYPE": "U",
    "NORAD_CAT_ID": 49455,
    "ELEMENT_SET_NO": 999,
    "REV_AT_EPOCH": 9397,
    "BSTAR": 7.4046e-5,
    "MEAN_MOTION_DOT": 8.91e-6,
    "MEAN_MOTION_DDOT": 0
},{
    "OBJECT_NAME": "STARLINK-3124",
    "OBJECT_ID": "2021-104BA",
    "EPOCH": "2023-07-17T08:42:57.219264",
    "MEAN_MOTION": 15.08846349,
    "ECCENTRICITY": 0.0001074,
    "INCLINATION": 53.2151,
    "RA_OF_ASC_NODE": 237.1799,
    "ARG_OF_PERICENTER": 87.6875,
    "MEAN_ANOMALY": 272.424,
    "EPHEMERIS_TYPE": 0,
    "CLASSIFICATION_TYPE": "U",
    "NORAD_CAT_ID": 49456,
    "ELEMENT_SET_NO": 999,
    "REV_AT_EPOCH": 9396,
    "BSTAR": 0.00026227,
    "MEAN_MOTION_DOT": 3.889e-5,
    "MEAN_MOTION_DDOT": 0
},{
    "OBJECT_NAME": "STARLINK-3132",
    "OBJECT_ID": "2021-104BB",
    "EPOCH": "2023-07-16T10:06:21.335328",
    "MEAN_MOTION": 15.08838227,
    "ECCENTRICITY": 0.0001023,
    "INCLINATION": 53.217,
    "RA_OF_ASC_NODE": 241.3697,
    "ARG_OF_PERICENTER": 97.4675,
    "MEAN_ANOMALY": 262.6433,
    "EPHEMERIS_TYPE": 0,
    "CLASSIFICATION_TYPE": "U",
    "NORAD_CAT_ID": 49457,
    "ELEMENT_SET_NO": 999,
    "REV_AT_EPOCH": 9382,
    "BSTAR": 5.1455e-5,
    "MEAN_MOTION_DOT": 5.31e-6,
    "MEAN_MOTION_DDOT": 0
},{
    "OBJECT_NAME": "STARLINK-3156",
    "OBJECT_ID": "2021-104BC",
    "EPOCH": "2023-07-17T08:30:57.932352",
    "MEAN_MOTION": 15.08845018,
    "ECCENTRICITY": 8.43e-5,
    "INCLINATION": 53.2162,
    "RA_OF_ASC_NODE": 237.1689,
    "ARG_OF_PERICENTER": 81.7424,
    "MEAN_ANOMALY": 278.3664,
    "EPHEMERIS_TYPE": 0,
    "CLASSIFICATION_TYPE": "U",
    "NORAD_CAT_ID": 49458,
    "ELEMENT_SET_NO": 999,
    "REV_AT_EPOCH": 9397,
    "BSTAR": 9.9813e-5,
    "MEAN_MOTION_DOT": 1.301e-5,
    "MEAN_MOTION_DDOT": 0
},{
    "OBJECT_NAME": "STARLINK-3141",
    "OBJECT_ID": "2021-104BD",
    "EPOCH": "2023-07-17T09:50:28.099680",
    "MEAN_MOTION": 15.08834689,
    "ECCENTRICITY": 0.0001082,
    "INCLINATION": 53.2168,
    "RA_OF_ASC_NODE": 236.9198,
    "ARG_OF_PERICENTER": 99.8375,
    "MEAN_ANOMALY": 260.2739,
    "EPHEMERIS_TYPE": 0,
    "CLASSIFICATION_TYPE": "U",
    "NORAD_CAT_ID": 49459,
    "ELEMENT_SET_NO": 999,
    "REV_AT_EPOCH": 9397,
    "BSTAR": -8.2856e-6,
    "MEAN_MOTION_DOT": -4.2e-6,
    "MEAN_MOTION_DDOT": 0
},{
    "OBJECT_NAME": "STARLINK-3140",
    "OBJECT_ID": "2021-104BE",
    "EPOCH": "2023-07-17T11:20:32.415360",
    "MEAN_MOTION": 15.0884382,
    "ECCENTRICITY": 8.25e-5,
    "INCLINATION": 53.2166,
    "RA_OF_ASC_NODE": 236.6392,
    "ARG_OF_PERICENTER": 70.9514,
    "MEAN_ANOMALY": 289.1567,
    "EPHEMERIS_TYPE": 0,
    "CLASSIFICATION_TYPE": "U",
    "NORAD_CAT_ID": 49460,
    "ELEMENT_SET_NO": 999,
    "REV_AT_EPOCH": 9399,
    "BSTAR": 9.647e-5,
    "MEAN_MOTION_DOT": 1.248e-5,
    "MEAN_MOTION_DDOT": 0
},{
    "OBJECT_NAME": "STARLINK-3219",
    "OBJECT_ID": "2021-115A",
    "EPOCH": "2023-07-16T22:11:01.210848",
    "MEAN_MOTION": 15.0883869,
    "ECCENTRICITY": 0.0001067,
    "INCLINATION": 53.2162,
    "RA_OF_ASC_NODE": 169.1007,
    "ARG_OF_PERICENTER": 86.5035,
    "MEAN_ANOMALY": 273.6079,
    "EPHEMERIS_TYPE": 0,
    "CLASSIFICATION_TYPE": "U",
    "NORAD_CAT_ID": 49724,
    "ELEMENT_SET_NO": 999,
    "REV_AT_EPOCH": 9069,
    "BSTAR": 6.0251e-5,
    "MEAN_MOTION_DOT": 6.71e-6,
    "MEAN_MOTION_DDOT": 0
},{
    "OBJECT_NAME": "STARLINK-3218",
    "OBJECT_ID": "2021-115B",
    "EPOCH": "2023-07-17T08:45:33.733728",
    "MEAN_MOTION": 15.08840477,
    "ECCENTRICITY": 0.0001157,
    "INCLINATION": 53.2164,
    "RA_OF_ASC_NODE": 167.2255,
    "ARG_OF_PERICENTER": 92.5149,
    "MEAN_ANOMALY": 267.5976,
    "EPHEMERIS_TYPE": 0,
    "CLASSIFICATION_TYPE": "U",
    "NORAD_CAT_ID": 49725,
    "ELEMENT_SET_NO": 999,
    "REV_AT_EPOCH": 9076,
    "BSTAR": 4.664e-5,
    "MEAN_MOTION_DOT": 4.55e-6,
    "MEAN_MOTION_DDOT": 0
},{
    "OBJECT_NAME": "STARLINK-3237",
    "OBJECT_ID": "2021-115C",
    "EPOCH": "2023-07-17T09:10:42.636288",
    "MEAN_MOTION": 15.0884225,
    "ECCENTRICITY": 0.0001147,
    "INCLINATION": 53.2165,
    "RA_OF_ASC_NODE": 177.043,
    "ARG_OF_PERICENTER": 87.2546,
    "MEAN_ANOMALY": 272.8577,
    "EPHEMERIS_TYPE": 0,
    "CLASSIFICATION_TYPE": "U",
    "NORAD_CAT_ID": 49726,
    "ELEMENT_SET_NO": 999,
    "REV_AT_EPOCH": 9062,
    "BSTAR": 6.4022e-5,
    "MEAN_MOTION_DOT": 7.31e-6,
    "MEAN_MOTION_DDOT": 0
},{
    "OBJECT_NAME": "STARLINK-3242",
    "OBJECT_ID": "2021-115D",
    "EPOCH": "2023-07-17T09:16:02.191008",
    "MEAN_MOTION": 15.08833573,
    "ECCENTRICITY": 8.54e-5,
    "INCLINATION": 53.2158,
    "RA_OF_ASC_NODE": 177.0238,
    "ARG_OF_PERICENTER": 87.7968,
    "MEAN_ANOMALY": 272.3122,
    "EPHEMERIS_TYPE": 0,
    "CLASSIFICATION_TYPE": "U",
    "NORAD_CAT_ID": 49727,
    "ELEMENT_SET_NO": 999,
    "REV_AT_EPOCH": 9063,
    "BSTAR": 1.9929e-5,
    "MEAN_MOTION_DOT": 2.9e-7,
    "MEAN_MOTION_DDOT": 0
}]
